ORBCOMM FM37 [-]        
1 33064U 08031E   23317.88453810  .00002023  00000+0  32461-3 0  9996
2 33064  48.4404 217.1286 0005629  47.6221  69.6942 14.75412605828091
ORBCOMM FM40 [-]        
1 33065U 08031F   23317.82384973  .00002273  00000+0  35204-3 0  9999
2 33065  48.4427 208.3617 0006952  56.6488  59.3199 14.76509237828103
VESSELSAT 1 [-]         
1 37840U 11058C   23318.16318938  .00000423  00000+0  86562-4 0  9992
2 37840  19.9635   8.8594 0013531 277.0838  82.8028 14.11083111624369
ORBCOMM FM109 [+]       
1 40086U 14040A   23318.06088276  .00001057  00000+0  27509-3 0  9999
2 40086  47.0039 236.1633 0001544 179.5545 180.5342 14.56087807496432
ORBCOMM FM107 [+]       
1 40087U 14040B   23317.88918952  .00001167  00000+0  29974-3 0  9992
2 40087  47.0050 237.9083 0000801 126.5878 233.5081 14.56094859496366
ORBCOMM FM106 [-]       
1 40088U 14040C   23317.70334196  .00001662  00000+0  33107-3 0  9999
2 40088  47.0588 104.9509 0018972 250.7877 109.0960 14.66229386498053
ORBCOMM FM111 [-]       
1 40089U 14040D   23317.99483751  .00002742  00000+0  37878-3 0  9992
2 40089  47.0062  25.2316 0034302 300.6668  59.0847 14.80374061503951
ORBCOMM FM104 [-]       
1 40090U 14040E   23318.16209147  .00000942  00000+0  25703-3 0  9993
2 40090  47.0060 263.5853 0016626  71.4579 288.8110 14.54629108496072
